start=new Date('2022-04-29T00:00:00.000Z').valueOf();
sats=[{"TLE_LINE1":"1 51109U 22005F   22118.58334491 -.00419253  00000-0 -12494-1 0  9993","EPHEMERIS_TYPE":"0","COUNTRY_CODE":"US","OBJECT_TYPE":"PAYLOAD","MEAN_ANOMALY":"57.3205","FILE":"3420061","PERIAPSIS":"457.185","TIME_SYSTEM":"UTC","ARG_OF_PERICENTER":"39.3713","GP_ID":"202219148","ELEMENT_SET_NO":"999","ECCENTRICITY":"0.00016530","CLASSIFICATION_TYPE":"U","CENTER_NAME":"EARTH","REF_FRAME":"TEME","MEAN_MOTION_DDOT":"0.0000000000000","BSTAR":"-0.01249400000000","PERIOD":"93.757","SEMIMAJOR_AXIS":"6836.450","NORAD_CAT_ID":"51109","MEAN_MOTION_DOT":"-0.00419253","INCLINATION":"53.2171","REV_AT_EPOCH":"367","RA_OF_ASC_NODE":"146.8022","LAUNCH_DATE":"2022-01-19","MEAN_ELEMENT_THEORY":"SGP4","OBJECT_NAME":"STARLINK-3358","TLE_LINE2":"2 51109  53.2171 146.8022 0001653  39.3713  57.3205 15.35878415  3676","APOAPSIS":"459.445","OBJECT_ID":"2022-005F","MEAN_MOTION":"15.35878415","RCS_SIZE":"LARGE","EPOCH":"2022-04-28T14:00:01.000224","DECAY_DATE":null,"SITE":"AFETR"},{"FILE":"3420061","PERIAPSIS":"453.687","TIME_SYSTEM":"UTC","MEAN_ANOMALY":"307.0301","OBJECT_TYPE":"PAYLOAD","COUNTRY_CODE":"US","TLE_LINE1":"1 51110U 22005G   22118.58334491 -.00645445  00000-0 -18816-1 0  9993","EPHEMERIS_TYPE":"0","TLE_LINE2":"2 51110  53.2174 145.8288 0001526  42.4347 307.0301 15.37087446  3682","OBJECT_NAME":"STARLINK-3344","LAUNCH_DATE":"2022-01-19","MEAN_ELEMENT_THEORY":"SGP4","EPOCH":"2022-04-28T14:00:01.000224","DECAY_DATE":null,"SITE":"AFETR","RCS_SIZE":"LARGE","MEAN_MOTION":"15.37087446","APOAPSIS":"455.772","OBJECT_ID":"2022-005G","MEAN_MOTION_DDOT":"0.0000000000000","BSTAR":"-0.01881600000000","CLASSIFICATION_TYPE":"U","CENTER_NAME":"EARTH","REF_FRAME":"TEME","GP_ID":"202219396","ELEMENT_SET_NO":"999","ECCENTRICITY":"0.00015260","ARG_OF_PERICENTER":"42.4347","RA_OF_ASC_NODE":"145.8288","INCLINATION":"53.2174","REV_AT_EPOCH":"368","NORAD_CAT_ID":"51110","MEAN_MOTION_DOT":"-0.00645445","PERIOD":"93.684","SEMIMAJOR_AXIS":"6832.864"},{"COUNTRY_CODE":"US","OBJECT_TYPE":"PAYLOAD","MEAN_ANOMALY":"129.0890","PERIAPSIS":"458.454","TIME_SYSTEM":"UTC","FILE":"3420241","EPHEMERIS_TYPE":"0","TLE_LINE1":"1 51111U 22005H   22118.83334491 -.00644405  00000-0 -19823-1 0  9996","MEAN_MOTION":"15.35420827","APOAPSIS":"460.891","OBJECT_ID":"2022-005H","RCS_SIZE":"LARGE","DECAY_DATE":null,"SITE":"AFETR","EPOCH":"2022-04-28T20:00:01.000224","MEAN_ELEMENT_THEORY":"SGP4","LAUNCH_DATE":"2022-01-19","OBJECT_NAME":"STARLINK-3173","TLE_LINE2":"2 51111  53.2174 144.6488 0001782  39.3558 129.0890 15.35420827 16978","SEMIMAJOR_AXIS":"6837.808","PERIOD":"93.785","MEAN_MOTION_DOT":"-0.00644405","NORAD_CAT_ID":"51111","INCLINATION":"53.2174","RA_OF_ASC_NODE":"144.6488","REV_AT_EPOCH":"1697","ARG_OF_PERICENTER":"39.3558","ECCENTRICITY":"0.00017820","ELEMENT_SET_NO":"999","GP_ID":"202225021","REF_FRAME":"TEME","CENTER_NAME":"EARTH","CLASSIFICATION_TYPE":"U","BSTAR":"-0.01982300000000","MEAN_MOTION_DDOT":"0.0000000000000"},{"ARG_OF_PERICENTER":"48.6008","GP_ID":"202218898","ELEMENT_SET_NO":"999","ECCENTRICITY":"0.00015660","CLASSIFICATION_TYPE":"U","REF_FRAME":"TEME","CENTER_NAME":"EARTH","MEAN_MOTION_DDOT":"0.0000000000000","BSTAR":"-0.01797800000000","PERIOD":"93.599","SEMIMAJOR_AXIS":"6828.723","NORAD_CAT_ID":"51112","MEAN_MOTION_DOT":"-0.00645531","RA_OF_ASC_NODE":"145.8275","REV_AT_EPOCH":"368","INCLINATION":"53.2173","LAUNCH_DATE":"2022-01-19","MEAN_ELEMENT_THEORY":"SGP4","OBJECT_NAME":"STARLINK-3374","TLE_LINE2":"2 51112  53.2173 145.8275 0001566  48.6008 214.2518 15.38485792  3681","APOAPSIS":"451.658","MEAN_MOTION":"15.38485792","OBJECT_ID":"2022-005J","RCS_SIZE":"LARGE","EPOCH":"2022-04-28T14:00:01.000224","DECAY_DATE":null,"SITE":"AFETR","TLE_LINE1":"1 51112U 22005J   22118.58334491 -.00645531  00000-0 -17978-1 0  9999","EPHEMERIS_TYPE":"0","COUNTRY_CODE":"US","OBJECT_TYPE":"PAYLOAD","MEAN_ANOMALY":"214.2518","FILE":"3420061","PERIAPSIS":"449.519","TIME_SYSTEM":"UTC"},{"MEAN_MOTION_DDOT":"0.0000000000000","BSTAR":"-0.01981400000000","CLASSIFICATION_TYPE":"U","REF_FRAME":"TEME","CENTER_NAME":"EARTH","GP_ID":"202218648","ECCENTRICITY":"0.00016790","ELEMENT_SET_NO":"999","ARG_OF_PERICENTER":"45.3479","INCLINATION":"53.2171","RA_OF_ASC_NODE":"145.8207","REV_AT_EPOCH":"368","NORAD_CAT_ID":"51113","MEAN_MOTION_DOT":"-0.00644098","PERIOD":"93.785","SEMIMAJOR_AXIS":"6837.811","TLE_LINE2":"2 51113  53.2171 145.8207 0001679  45.3479 144.4449 15.35419662  3683","OBJECT_NAME":"STARLINK-3372","LAUNCH_DATE":"2022-01-19","MEAN_ELEMENT_THEORY":"SGP4","EPOCH":"2022-04-28T14:00:01.000224","DECAY_DATE":null,"SITE":"AFETR","RCS_SIZE":"LARGE","APOAPSIS":"460.824","MEAN_MOTION":"15.35419662","OBJECT_ID":"2022-005K","TLE_LINE1":"1 51113U 22005K   22118.58334491 -.00644098  00000-0 -19814-1 0  9998","EPHEMERIS_TYPE":"0","FILE":"3420061","PERIAPSIS":"458.528","TIME_SYSTEM":"UTC","OBJECT_TYPE":"PAYLOAD","MEAN_ANOMALY":"144.4449","COUNTRY_CODE":"US"},{"EPHEMERIS_TYPE":"0","TLE_LINE1":"1 51114U 22005L   22118.83334491 -.00647469  00000-0 -19160-1 0  9996","COUNTRY_CODE":"US","OBJECT_TYPE":"PAYLOAD","MEAN_ANOMALY":"240.8946","FILE":"3420241","PERIAPSIS":"454.928","TIME_SYSTEM":"UTC","PERIOD":"93.711","SEMIMAJOR_AXIS":"6834.214","NORAD_CAT_ID":"51114","MEAN_MOTION_DOT":"-0.00647469","RA_OF_ASC_NODE":"144.6566","REV_AT_EPOCH":"1697","INCLINATION":"53.2177","ARG_OF_PERICENTER":"40.9464","GP_ID":"202224529","ELEMENT_SET_NO":"999","ECCENTRICITY":"0.00016850","CLASSIFICATION_TYPE":"U","CENTER_NAME":"EARTH","REF_FRAME":"TEME","MEAN_MOTION_DDOT":"0.0000000000000","BSTAR":"-0.01916000000000","MEAN_MOTION":"15.36632075","APOAPSIS":"457.231","OBJECT_ID":"2022-005L","RCS_SIZE":"LARGE","EPOCH":"2022-04-28T20:00:01.000224","DECAY_DATE":null,"SITE":"AFETR","LAUNCH_DATE":"2022-01-19","MEAN_ELEMENT_THEORY":"SGP4","OBJECT_NAME":"STARLINK-3375","TLE_LINE2":"2 51114  53.2177 144.6566 0001685  40.9464 240.8946 15.36632075 16972"},{"OBJECT_TYPE":"PAYLOAD","MEAN_ANOMALY":"119.3856","COUNTRY_CODE":"US","PERIAPSIS":"458.760","TIME_SYSTEM":"UTC","FILE":"3420287","EPHEMERIS_TYPE":"0","TLE_LINE1":"1 51115U 22005M   22118.83334491 -.00644258  00000-0 -19891-1 0  9991","APOAPSIS":"461.264","MEAN_MOTION":"15.35306450","OBJECT_ID":"2022-005M","DECAY_DATE":null,"SITE":"AFETR","EPOCH":"2022-04-28T20:00:01.000224","RCS_SIZE":"LARGE","MEAN_ELEMENT_THEORY":"SGP4","LAUNCH_DATE":"2022-01-19","TLE_LINE2":"2 51115  53.2174 144.6486 0001831  37.0415 119.3856 15.35306450 16971","OBJECT_NAME":"STARLINK-3397","MEAN_MOTION_DOT":"-0.00644258","NORAD_CAT_ID":"51115","SEMIMAJOR_AXIS":"6838.147","PERIOD":"93.792","RA_OF_ASC_NODE":"144.6486","INCLINATION":"53.2174","REV_AT_EPOCH":"1697","ELEMENT_SET_NO":"999","ECCENTRICITY":"0.00018310","GP_ID":"202226057","ARG_OF_PERICENTER":"37.0415","BSTAR":"-0.01989100000000","MEAN_MOTION_DDOT":"0.0000000000000","REF_FRAME":"TEME","CENTER_NAME":"EARTH","CLASSIFICATION_TYPE":"U"},{"FILE":"3420287","TIME_SYSTEM":"UTC","PERIAPSIS":"460.173","MEAN_ANOMALY":"72.0835","OBJECT_TYPE":"PAYLOAD","COUNTRY_CODE":"US","TLE_LINE1":"1 51116U 22005N   22118.83334491 -.00644546  00000-0 -20195-1 0  9991","EPHEMERIS_TYPE":"0","TLE_LINE2":"2 51116  53.2175 144.6473 0001750  35.9290  72.0835 15.34849420 16966","OBJECT_NAME":"STARLINK-3243","LAUNCH_DATE":"2022-01-19","MEAN_ELEMENT_THEORY":"SGP4","EPOCH":"2022-04-28T20:00:01.000224","SITE":"AFETR","DECAY_DATE":null,"RCS_SIZE":"LARGE","OBJECT_ID":"2022-005N","APOAPSIS":"462.567","MEAN_MOTION":"15.34849420","MEAN_MOTION_DDOT":"0.0000000000000","BSTAR":"-0.02019500000000","CLASSIFICATION_TYPE":"U","REF_FRAME":"TEME","CENTER_NAME":"EARTH","GP_ID":"202226056","ECCENTRICITY":"0.00017500","ELEMENT_SET_NO":"999","ARG_OF_PERICENTER":"35.9290","RA_OF_ASC_NODE":"144.6473","REV_AT_EPOCH":"1696","INCLINATION":"53.2175","NORAD_CAT_ID":"51116","MEAN_MOTION_DOT":"-0.00644546","PERIOD":"93.820","SEMIMAJOR_AXIS":"6839.505"},{"APOAPSIS":"459.837","MEAN_MOTION":"15.35764130","OBJECT_ID":"2022-005P","RCS_SIZE":"LARGE","EPOCH":"2022-04-28T20:00:01.000224","SITE":"AFETR","DECAY_DATE":null,"LAUNCH_DATE":"2022-01-19","MEAN_ELEMENT_THEORY":"SGP4","OBJECT_NAME":"STARLINK-3391","TLE_LINE2":"2 51117  53.2175 144.6488 0001731  43.2537 161.0383 15.35764130 16971","PERIOD":"93.764","SEMIMAJOR_AXIS":"6836.789","NORAD_CAT_ID":"51117","MEAN_MOTION_DOT":"-0.00645104","RA_OF_ASC_NODE":"144.6488","REV_AT_EPOCH":"1697","INCLINATION":"53.2175","ARG_OF_PERICENTER":"43.2537","GP_ID":"202226062","ELEMENT_SET_NO":"999","ECCENTRICITY":"0.00017310","CLASSIFICATION_TYPE":"U","REF_FRAME":"TEME","CENTER_NAME":"EARTH","MEAN_MOTION_DDOT":"0.0000000000000","BSTAR":"-0.01962800000000","COUNTRY_CODE":"US","MEAN_ANOMALY":"161.0383","OBJECT_TYPE":"PAYLOAD","FILE":"3420287","TIME_SYSTEM":"UTC","PERIAPSIS":"457.470","EPHEMERIS_TYPE":"0","TLE_LINE1":"1 51117U 22005P   22118.83334491 -.00645104  00000-0 -19628-1 0  9992"},{"APOAPSIS":"461.615","OBJECT_ID":"2022-005Q","MEAN_MOTION":"15.35192145","DECAY_DATE":null,"SITE":"AFETR","EPOCH":"2022-04-28T20:00:01.000224","RCS_SIZE":"LARGE","MEAN_ELEMENT_THEORY":"SGP4","LAUNCH_DATE":"2022-01-19","TLE_LINE2":"2 51118  53.2174 144.6484 0001847  36.1818 108.1932 15.35192145 16971","OBJECT_NAME":"STARLINK-3394","MEAN_MOTION_DOT":"-0.00644224","NORAD_CAT_ID":"51118","SEMIMAJOR_AXIS":"6838.487","PERIOD":"93.799","RA_OF_ASC_NODE":"144.6484","REV_AT_EPOCH":"1697","INCLINATION":"53.2174","ECCENTRICITY":"0.00018470","ELEMENT_SET_NO":"999","GP_ID":"202226351","ARG_OF_PERICENTER":"36.1818","BSTAR":"-0.01996300000000","MEAN_MOTION_DDOT":"0.0000000000000","REF_FRAME":"TEME","CENTER_NAME":"EARTH","CLASSIFICATION_TYPE":"U","OBJECT_TYPE":"PAYLOAD","MEAN_ANOMALY":"108.1932","COUNTRY_CODE":"US","TIME_SYSTEM":"UTC","PERIAPSIS":"459.089","FILE":"3420287","EPHEMERIS_TYPE":"0","TLE_LINE1":"1 51118U 22005Q   22118.83334491 -.00644224  00000-0 -19963-1 0  9997"}];
